[{"OBJECT_NAME":"STARLINK-32023","OBJECT_ID":"2024-124Q","EPOCH":"2026-03-09T23:08:43.895616","MEAN_MOTION":15.30183624,"ECCENTRICITY":0.00014184,"INCLINATION":53.1613,"RA_OF_ASC_NODE":321.5139,"ARG_OF_PERICENTER":64.954,"MEAN_ANOMALY":295.1608,"EPHEMERIS_TYPE":0,"CLASSIFICATION_TYPE":"U","NORAD_CAT_ID":60197,"ELEMENT_SET_NO":999,"REV_AT_EPOCH":9433,"BSTAR":8.7317213e-5,"MEAN_MOTION_DOT":2.226e-5,"MEAN_MOTION_DDOT":0},{"OBJECT_NAME":"FENGYUN 1C DEB","OBJECT_ID":"1999-025DFQ","EPOCH":"2026-03-09T11:05:09.183840","MEAN_MOTION":15.08584918,"ECCENTRICITY":0.01333512,"INCLINATION":99.3393,"RA_OF_ASC_NODE":158.3034,"ARG_OF_PERICENTER":18.9579,"MEAN_ANOMALY":341.654,"EPHEMERIS_TYPE":0,"CLASSIFICATION_TYPE":"U","NORAD_CAT_ID":33679,"ELEMENT_SET_NO":999,"REV_AT_EPOCH":95428,"BSTAR":0.0014594523,"MEAN_MOTION_DOT":0.00028083,"MEAN_MOTION_DDOT":0}]
